{
  "type": "FeatureCollection",
  "features": [
    {
      "type": "Feature",
      "properties": {
        "norad_id": 55973,
        "name": "TIANMU-1 03",
        "group": "weather",
        "lat": 22.867480197526262,
        "lon": 145.68884626258597,
        "alt_km": 440.8489497383098,
        "timestamp": "2025-12-12T05:47:28.414887+00:00",
        "meta_object_name": "TIANMU-1 03",
        "meta_object_id": "2023-039A",
        "meta_epoch": "2025-12-12T01:00:56.866176",
        "meta_mean_motion": 15.40891005,
        "meta_eccentricity": 0.00044247,
        "meta_inclination": 97.511,
        "meta_ra_of_asc_node": 148.6743,
        "meta_arg_of_pericenter": 63.4826,
        "meta_mean_anomaly": 296.6874,
        "meta_ephemeris_type": 0,
        "meta_classification_type": "U",
        "meta_norad_cat_id": 55973,
        "meta_element_set_no": 999,
        "meta_rev_at_epoch": 15195,
        "meta_bstar": 0.00049116115,
        "meta_mean_motion_dot": 0.00020126,
        "meta_mean_motion_ddot": 0,
        "tle_line1": "1 55973U 23039A   25346.04232484  .00020126  00000+0  49116-3 0  9997",
        "tle_line2": "2 55973  97.5110 148.6743 0004424  63.4826 296.6874 15.40891005151956"
      },
      "geometry": {
        "type": "Point",
        "coordinates": [
          145.68884626258597,
          22.867480197526262
        ]
      }
    },
    {
      "type": "Feature",
      "properties": {
        "norad_id": 55974,
        "name": "TIANMU-1 04",
        "group": "weather",
        "lat": 42.81926978520323,
        "lon": -24.913766937136952,
        "alt_km": 438.34871435277546,
        "timestamp": "2025-12-12T05:47:28.414897+00:00",
        "meta_object_name": "TIANMU-1 04",
        "meta_object_id": "2023-039B",
        "meta_epoch": "2025-12-12T00:31:34.292352",
        "meta_mean_motion": 15.41225831,
        "meta_eccentricity": 0.0005088,
        "meta_inclination": 97.5042,
        "meta_ra_of_asc_node": 147.8447,
        "meta_arg_of_pericenter": 58.3326,
        "meta_mean_anomaly": 301.8416,
        "meta_ephemeris_type": 0,
        "meta_classification_type": "U",
        "meta_norad_cat_id": 55974,
        "meta_element_set_no": 999,
        "meta_rev_at_epoch": 15195,
        "meta_bstar": 0.00049574387,
        "meta_mean_motion_dot": 0.00020545,
        "meta_mean_motion_ddot": 0,
        "tle_line1": "1 55974U 23039B   25346.02192468  .00020545  00000+0  49574-3 0  9996",
        "tle_line2": "2 55974  97.5042 147.8447 0005088  58.3326 301.8416 15.41225831151958"
      },
      "geometry": {
        "type": "Point",
        "coordinates": [
          -24.913766937136952,
          42.81926978520323
        ]
      }
    },
    {
      "type": "Feature",
      "properties": {
        "norad_id": 55975,
        "name": "TIANMU-1 05",
        "group": "weather",
        "lat": 10.5803778134426,
        "lon": -30.02574538856317,
        "alt_km": 445.18402694702945,
        "timestamp": "2025-12-12T05:47:28.414908+00:00",
        "meta_object_name": "TIANMU-1 05",
        "meta_object_id": "2023-039C",
        "meta_epoch": "2025-12-12T00:23:01.866048",
        "meta_mean_motion": 15.40846811,
        "meta_eccentricity": 0.00043673,
        "meta_inclination": 97.5088,
        "meta_ra_of_asc_node": 148.331,
        "meta_arg_of_pericenter": 80.6013,
        "meta_mean_anomaly": 279.5726,
        "meta_ephemeris_type": 0,
        "meta_classification_type": "U",
        "meta_norad_cat_id": 55975,
        "meta_element_set_no": 999,
        "meta_rev_at_epoch": 15193,
        "meta_bstar": 0.00049077067,
        "meta_mean_motion_dot": 0.0002008,
        "meta_mean_motion_ddot": 0,
        "tle_line1": "1 55975U 23039C   25346.01599382  .00020080  00000+0  49077-3 0  9994",
        "tle_line2": "2 55975  97.5088 148.3310 0004367  80.6013 279.5726 15.40846811151933"
      },
      "geometry": {
        "type": "Point",
        "coordinates": [
          -30.02574538856317,
          10.5803778134426
        ]
      }
    },
    {
      "type": "Feature",
      "properties": {
        "norad_id": 55976,
        "name": "TIANMU-1 06",
        "group": "weather",
        "lat": 54.75764727451469,
        "lon": -20.21170147524717,
        "alt_km": 435.10831571022027,
        "timestamp": "2025-12-12T05:47:28.414921+00:00",
        "meta_object_name": "TIANMU-1 06",
        "meta_object_id": "2023-039D",
        "meta_epoch": "2025-12-12T00:34:44.285952",
        "meta_mean_motion": 15.41278011,
        "meta_eccentricity": 0.00046648,
        "meta_inclination": 97.5099,
        "meta_ra_of_asc_node": 148.8037,
        "meta_arg_of_pericenter": 75.5375,
        "meta_mean_anomaly": 284.6389,
        "meta_ephemeris_type": 0,
        "meta_classification_type": "U",
        "meta_norad_cat_id": 55976,
        "meta_element_set_no": 999,
        "meta_rev_at_epoch": 15195,
        "meta_bstar": 0.00049344344,
        "meta_mean_motion_dot": 0.00020483,
        "meta_mean_motion_ddot": 0,
        "tle_line1": "1 55976U 23039D   25346.02412368  .00020483  00000+0  49344-3 0  9998",
        "tle_line2": "2 55976  97.5099 148.8037 0004664  75.5375 284.6389 15.41278011151957"
      },
      "geometry": {
        "type": "Point",
        "coordinates": [
          -20.21170147524717,
          54.75764727451469
        ]
      }
    },
    {
      "type": "Feature",
      "properties": {
        "norad_id": 56232,
        "name": "FENGYUN 3G",
        "group": "weather",
        "lat": 1.840555552754961,
        "lon": 48.47964317168477,
        "alt_km": 401.18903513565147,
        "timestamp": "2025-12-12T05:47:28.414931+00:00",
        "meta_object_name": "FENGYUN 3G",
        "meta_object_id": "2023-055A",
        "meta_epoch": "2025-12-11T22:51:23.409792",
        "meta_mean_motion": 15.5357145,
        "meta_eccentricity": 0.00092687,
        "meta_inclination": 49.9934,
        "meta_ra_of_asc_node": 231.518,
        "meta_arg_of_pericenter": 144.8142,
        "meta_mean_anomaly": 215.344,
        "meta_ephemeris_type": 0,
        "meta_classification_type": "U",
        "meta_norad_cat_id": 56232,
        "meta_element_set_no": 999,
        "meta_rev_at_epoch": 15090,
        "meta_bstar": 0.00066762334,
        "meta_mean_motion_dot": 0.00043203,
        "meta_mean_motion_ddot": 0,
        "tle_line1": "1 56232U 23055A   25345.95235428  .00043203  00000+0  66762-3 0  9991",
        "tle_line2": "2 56232  49.9934 231.5180 0009268 144.8142 215.3440 15.53571450150907"
      },
      "geometry": {
        "type": "Point",
        "coordinates": [
          48.47964317168477,
          1.840555552754961
        ]
      }
    },
    {
      "type": "Feature",
      "properties": {
        "norad_id": 57166,
        "name": "METEOR-M2 3",
        "group": "weather",
        "lat": -33.1258689197306,
        "lon": -145.90332468735954,
        "alt_km": 820.477903022198,
        "timestamp": "2025-12-12T05:47:28.414942+00:00",
        "meta_object_name": "METEOR-M2 3",
        "meta_object_id": "2023-091A",
        "meta_epoch": "2025-12-11T23:43:58.518336",
        "meta_mean_motion": 14.24025941,
        "meta_eccentricity": 0.00039494,
        "meta_inclination": 98.6379,
        "meta_ra_of_asc_node": 39.5413,
        "meta_arg_of_pericenter": 10.9809,
        "meta_mean_anomaly": 349.1456,
        "meta_ephemeris_type": 0,
        "meta_classification_type": "U",
        "meta_norad_cat_id": 57166,
        "meta_element_set_no": 999,
        "meta_rev_at_epoch": 12787,
        "meta_bstar": 2.8647223e-05,
        "meta_mean_motion_dot": 2.2e-07,
        "meta_mean_motion_ddot": 0,
        "tle_line1": "1 57166U 23091A   25345.98887174  .00000022  00000+0  28647-4 0  9995",
        "tle_line2": "2 57166  98.6379  39.5413 0003949  10.9809 349.1456 14.24025941127875"
      },
      "geometry": {
        "type": "Point",
        "coordinates": [
          -145.90332468735954,
          -33.1258689197306
        ]
      }
    },
    {
      "type": "Feature",
      "properties": {
        "norad_id": 57399,
        "name": "TIANMU-1 07",
        "group": "weather",
        "lat": -33.97026666917256,
        "lon": -148.84478216299192,
        "alt_km": 490.45147560970236,
        "timestamp": "2025-12-12T05:47:28.414953+00:00",
        "meta_object_name": "TIANMU-1 07",
        "meta_object_id": "2023-101A",
        "meta_epoch": "2025-12-12T00:08:32.384832",
        "meta_mean_motion": 15.28055169,
        "meta_eccentricity": 0.0005627,
        "meta_inclination": 97.288,
        "meta_ra_of_asc_node": 35.8716,
        "meta_arg_of_pericenter": 83.553,
        "meta_mean_anomaly": 276.635,
        "meta_ephemeris_type": 0,
        "meta_classification_type": "U",
        "meta_norad_cat_id": 57399,
        "meta_element_set_no": 999,
        "meta_rev_at_epoch": 13304,
        "meta_bstar": 0.0004090908,
        "meta_mean_motion_dot": 0.00011131,
        "meta_mean_motion_ddot": 0,
        "tle_line1": "1 57399U 23101A   25346.00593038  .00011131  00000+0  40909-3 0  9999",
        "tle_line2": "2 57399  97.2880  35.8716 0005627  83.5530 276.6350 15.28055169133045"
      },
      "geometry": {
        "type": "Point",
        "coordinates": [
          -148.84478216299192,
          -33.97026666917256
        ]
      }
    }
  ]
}